{
 "generated_at": "2026-06-16T10:08:45Z",
 "sources": [
  {
   "name": "CelesTrak",
   "url": "https://celestrak.org/NORAD/elements/",
   "license": "frei verfügbar; Attribution. Ursprünglich USSPACECOM/Space-Track."
  },
  {
   "name": "GCAT (J. McDowell, planet4589.org)",
   "url": "https://planet4589.org/space/gcat/",
   "license": "CC-BY 4.0"
  }
 ],
 "satellites": [
  {
   "norad": 68291,
   "name": "STRIX-6",
   "intl": "2026-056A",
   "group": "sar",
   "gcat": {
    "class": "B",
    "category": "IMG-R",
    "owner": "SYNSP",
    "state": "J"
   },
   "omm": {
    "OBJECT_NAME": "STRIX-6",
    "OBJECT_ID": "2026-056A",
    "EPOCH": "2026-06-15T19:05:01.125024",
    "MEAN_MOTION": 15.00159494,
    "ECCENTRICITY": 0.00163576,
    "INCLINATION": 50.284,
    "RA_OF_ASC_NODE": 356.3766,
    "ARG_OF_PERICENTER": 238.4864,
    "MEAN_ANOMALY": 121.4487,
    "EPHEMERIS_TYPE": 0,
    "CLASSIFICATION_TYPE": "U",
    "NORAD_CAT_ID": 68291,
    "ELEMENT_SET_NO": 999,
    "REV_AT_EPOCH": 1306,
    "BSTAR": 0.0002527832,
    "MEAN_MOTION_DOT": 0.00002936,
    "MEAN_MOTION_DDOT": 0
   }
  },
  {
   "norad": 69177,
   "name": "STRIX-7",
   "intl": "2026-112A",
   "group": "sar",
   "gcat": {
    "class": "B",
    "category": "IMG-R",
    "owner": "SYNSP",
    "state": "J"
   },
   "omm": {
    "OBJECT_NAME": "STRIX-7",
    "OBJECT_ID": "2026-112A",
    "EPOCH": "2026-06-16T04:11:04.000704",
    "MEAN_MOTION": 15.01432269,
    "ECCENTRICITY": 0.0023238,
    "INCLINATION": 44.9055,
    "RA_OF_ASC_NODE": 197.7691,
    "ARG_OF_PERICENTER": 41.2929,
    "MEAN_ANOMALY": 318.9694,
    "EPHEMERIS_TYPE": 0,
    "CLASSIFICATION_TYPE": "U",
    "NORAD_CAT_ID": 69177,
    "ELEMENT_SET_NO": 999,
    "REV_AT_EPOCH": 372,
    "BSTAR": 0.00015913,
    "MEAN_MOTION_DOT": 0.00001863,
    "MEAN_MOTION_DDOT": 0
   }
  },
  {
   "norad": 37849,
   "name": "SUOMI NPP",
   "intl": "2011-061A",
   "group": "weather",
   "gcat": {
    "class": "C",
    "category": "MET",
    "owner": "GSFC/NOAA",
    "state": "US"
   },
   "omm": {
    "OBJECT_NAME": "SUOMI NPP",
    "OBJECT_ID": "2011-061A",
    "EPOCH": "2026-06-16T03:24:53.016192",
    "MEAN_MOTION": 14.19517153,
    "ECCENTRICITY": 0.0001593,
    "INCLINATION": 98.7953,
    "RA_OF_ASC_NODE": 108.0255,
    "ARG_OF_PERICENTER": 9.3782,
    "MEAN_ANOMALY": 350.7423,
    "EPHEMERIS_TYPE": 0,
    "CLASSIFICATION_TYPE": "U",
    "NORAD_CAT_ID": 37849,
    "ELEMENT_SET_NO": 999,
    "REV_AT_EPOCH": 75829,
    "BSTAR": 0.000048142,
    "MEAN_MOTION_DOT": 5.7e-7,
    "MEAN_MOTION_DDOT": 0
   }
  },
  {
   "norad": 54754,
   "name": "SWOT",
   "intl": "2022-173A",
   "group": "resource",
   "gcat": {
    "class": "C",
    "category": "EOSCI",
    "owner": "CNES/JPL",
    "state": "F"
   },
   "omm": {
    "OBJECT_NAME": "SWOT",
    "OBJECT_ID": "2022-173A",
    "EPOCH": "2026-06-16T03:08:21.299712",
    "MEAN_MOTION": 14.00169573,
    "ECCENTRICITY": 0.0000233,
    "INCLINATION": 77.6107,
    "RA_OF_ASC_NODE": 36.7363,
    "ARG_OF_PERICENTER": 87.4655,
    "MEAN_ANOMALY": 272.6523,
    "EPHEMERIS_TYPE": 0,
    "CLASSIFICATION_TYPE": "U",
    "NORAD_CAT_ID": 54754,
    "ELEMENT_SET_NO": 999,
    "REV_AT_EPOCH": 17900,
    "BSTAR": 0.000024536,
    "MEAN_MOTION_DOT": 3.4e-7,
    "MEAN_MOTION_DDOT": 0
   }
  },
  {
   "norad": 36605,
   "name": "TANDEM-X",
   "intl": "2010-030A",
   "group": "resource",
   "gcat": {
    "class": null,
    "category": "IMG-R",
    "owner": "DLR2/EASF",
    "state": "D"
   },
   "omm": {
    "OBJECT_NAME": "TANDEM-X",
    "OBJECT_ID": "2010-030A",
    "EPOCH": "2026-06-15T13:04:49.708992",
    "MEAN_MOTION": 15.19149123,
    "ECCENTRICITY": 0.0001884,
    "INCLINATION": 97.4452,
    "RA_OF_ASC_NODE": 174.2763,
    "ARG_OF_PERICENTER": 86.924,
    "MEAN_ANOMALY": 273.221,
    "EPHEMERIS_TYPE": 0,
    "CLASSIFICATION_TYPE": "U",
    "NORAD_CAT_ID": 36605,
    "ELEMENT_SET_NO": 999,
    "REV_AT_EPOCH": 88639,
    "BSTAR": 0.000021672042,
    "MEAN_MOTION_DOT": 0.00000388,
    "MEAN_MOTION_DDOT": 0
   }
  },
  {
   "norad": 25397,
   "name": "TECHSAT 1B (GO-32)",
   "intl": "1998-043D",
   "group": "resource",
   "gcat": {
    "class": "A",
    "category": "COM",
    "owner": "TECN",
    "state": "IL"
   },
   "omm": {
    "OBJECT_NAME": "TECHSAT 1B (GO-32)",
    "OBJECT_ID": "1998-043D",
    "EPOCH": "2026-06-16T05:18:55.343232",
    "MEAN_MOTION": 14.24428194,
    "ECCENTRICITY": 0.0001002,
    "INCLINATION": 99.0067,
    "RA_OF_ASC_NODE": 159.9557,
    "ARG_OF_PERICENTER": 165.2007,
    "MEAN_ANOMALY": 194.92,
    "EPHEMERIS_TYPE": 0,
    "CLASSIFICATION_TYPE": "U",
    "NORAD_CAT_ID": 25397,
    "ELEMENT_SET_NO": 999,
    "REV_AT_EPOCH": 45119,
    "BSTAR": 0.000033141,
    "MEAN_MOTION_DOT": 3e-7,
    "MEAN_MOTION_DDOT": 0
   }
  },
  {
   "norad": 25994,
   "name": "TERRA",
   "intl": "1999-068A",
   "group": "resource",
   "gcat": {
    "class": "C",
    "category": "IMG",
    "owner": "GSFC",
    "state": "US"
   },
   "omm": {
    "OBJECT_NAME": "TERRA",
    "OBJECT_ID": "1999-068A",
    "EPOCH": "2026-06-16T03:07:54.660000",
    "MEAN_MOTION": 14.61102329,
    "ECCENTRICITY": 0.0001501,
    "INCLINATION": 97.9457,
    "RA_OF_ASC_NODE": 216.7186,
    "ARG_OF_PERICENTER": 193.3628,
    "MEAN_ANOMALY": 244.8059,
    "EPHEMERIS_TYPE": 0,
    "CLASSIFICATION_TYPE": "U",
    "NORAD_CAT_ID": 25994,
    "ELEMENT_SET_NO": 999,
    "REV_AT_EPOCH": 40945,
    "BSTAR": 0.000073126,
    "MEAN_MOTION_DOT": 0.00000315,
    "MEAN_MOTION_DDOT": 0
   }
  },
  {
   "norad": 31698,
   "name": "TERRASAR-X",
   "intl": "2007-026A",
   "group": "resource",
   "gcat": {
    "class": null,
    "category": "IMG-R",
    "owner": "DLR2/EASF",
    "state": "D"
   },
   "omm": {
    "OBJECT_NAME": "TERRASAR-X",
    "OBJECT_ID": "2007-026A",
    "EPOCH": "2026-06-15T13:04:49.653696",
    "MEAN_MOTION": 15.19148908,
    "ECCENTRICITY": 0.00016045,
    "INCLINATION": 97.4452,
    "RA_OF_ASC_NODE": 174.2739,
    "ARG_OF_PERICENTER": 89.1769,
    "MEAN_ANOMALY": 270.9649,
    "EPHEMERIS_TYPE": 0,
    "CLASSIFICATION_TYPE": "U",
    "NORAD_CAT_ID": 31698,
    "ELEMENT_SET_NO": 999,
    "REV_AT_EPOCH": 5297,
    "BSTAR": 0.000017393623,
    "MEAN_MOTION_DOT": 0.00000298,
    "MEAN_MOTION_DDOT": 0
   }
  },
  {
   "norad": 33396,
   "name": "THEOS",
   "intl": "2008-049A",
   "group": "resource",
   "gcat": {
    "class": "C",
    "category": "IMG",
    "owner": "GISTDA",
    "state": "T"
   },
   "omm": {
    "OBJECT_NAME": "THEOS",
    "OBJECT_ID": "2008-049A",
    "EPOCH": "2026-06-16T04:39:08.356608",
    "MEAN_MOTION": 14.20133388,
    "ECCENTRICITY": 0.0001209,
    "INCLINATION": 98.5575,
    "RA_OF_ASC_NODE": 224.5095,
    "ARG_OF_PERICENTER": 80.3127,
    "MEAN_ANOMALY": 279.8186,
    "EPHEMERIS_TYPE": 0,
    "CLASSIFICATION_TYPE": "U",
    "NORAD_CAT_ID": 33396,
    "ELEMENT_SET_NO": 999,
    "REV_AT_EPOCH": 91782,
    "BSTAR": 0.000036739,
    "MEAN_MOTION_DOT": 3.6e-7,
    "MEAN_MOTION_DDOT": 0
   }
  },
  {
   "norad": 55973,
   "name": "TIANMU-1 03",
   "intl": "2023-039A",
   "group": "weather",
   "gcat": {
    "class": "B",
    "category": "MET",
    "owner": "TIANMU",
    "state": "CN"
   },
   "omm": {
    "OBJECT_NAME": "TIANMU-1 03",
    "OBJECT_ID": "2023-039A",
    "EPOCH": "2026-06-16T05:01:35.547744",
    "MEAN_MOTION": 15.47260625,
    "ECCENTRICITY": 0.0004231,
    "INCLINATION": 97.5226,
    "RA_OF_ASC_NODE": 341.1402,
    "ARG_OF_PERICENTER": 101.5396,
    "MEAN_ANOMALY": 258.6329,
    "EPHEMERIS_TYPE": 0,
    "CLASSIFICATION_TYPE": "U",
    "NORAD_CAT_ID": 55973,
    "ELEMENT_SET_NO": 999,
    "REV_AT_EPOCH": 18068,
    "BSTAR": 0.00025444,
    "MEAN_MOTION_DOT": 0.00012874,
    "MEAN_MOTION_DDOT": 0
   }
  }
 ]
}
